{"type": "FeatureCollection", "features": [ {"type": "Feature", "properties": {"norad_id": 41774, "name": "SKYSAT-C3", "group": "resource", "lat": 39.67751444637901, "lon": -157.0613047878591, "alt_km": 429.8553904990313, "timestamp": "2025-12-09T05:43:20.385212+00:00", "meta": {"OBJECT_NAME": "SKYSAT-C3", "OBJECT_ID": "2016-058E", "EPOCH": "2025-12-08T19:47:14.322048", "MEAN_MOTION": 15.4418834, "ECCENTRICITY": 0.0001607, "INCLINATION": 96.93, "RA_OF_ASC_NODE": 16.7531, "ARG_OF_PERICENTER": 105.459, "MEAN_ANOMALY": 254.6837, "EPHEMERIS_TYPE": 0, "CLASSIFICATION_TYPE": "U", "NORAD_CAT_ID": 41774, "ELEMENT_SET_NO": 999, "REV_AT_EPOCH": 51665, "BSTAR": 0.00057945, "MEAN_MOTION_DOT": 0.00026551, "MEAN_MOTION_DDOT": 0}, "tle": {"line1": "1 41774U 16058E   25342.82447132  .00026551  00000+0  57945-3 0  9991", "line2": "2 41774  96.9300  16.7531 0001607 105.4590 254.6837 15.44188340516659"}}, "geometry": {"type": "Point", "coordinates": [-157.0613047878591, 39.67751444637901]}}, {"type": "Feature", "properties": {"norad_id": 41785, "name": "ALSAT 1B", "group": "resource", "lat": -7.306454262179142, "lon": 174.17449490641621, "alt_km": 656.3658261942364, "timestamp": "2025-12-09T05:43:20.385229+00:00", "meta": {"OBJECT_NAME": "ALSAT 1B", "OBJECT_ID": "2016-059C", "EPOCH": "2025-12-08T20:43:07.054176", "MEAN_MOTION": 14.72068557, "ECCENTRICITY": 0.0010598, "INCLINATION": 97.781, "RA_OF_ASC_NODE": 354.8201, "ARG_OF_PERICENTER": 114.1217, "MEAN_ANOMALY": 246.11, "EPHEMERIS_TYPE": 0, "CLASSIFICATION_TYPE": "U", "NORAD_CAT_ID": 41785, "ELEMENT_SET_NO": 999, "REV_AT_EPOCH": 49257, "BSTAR": 0.0001043, "MEAN_MOTION_DOT": 6.09e-06, "MEAN_MOTION_DDOT": 0}, "tle": {"line1": "1 41785U 16059C   25342.86327609  .00000609  00000+0  10430-3 0  9998", "line2": "2 41785  97.7810 354.8201 0010598 114.1217 246.1100 14.72068557492578"}}, "geometry": {"type": "Point", "coordinates": [174.17449490641621, -7.306454262179142]}}, {"type": "Feature", "properties": {"norad_id": 41787, "name": "PATHFINDER 1", "group": "resource", "lat": -34.425489274704546, "lon": -8.425062099995731, "alt_km": 688.4439074192387, "timestamp": "2025-12-09T05:43:20.385239+00:00", "meta": {"OBJECT_NAME": "PATHFINDER 1", "OBJECT_ID": "2016-059E", "EPOCH": "2025-12-08T20:03:39.962016", "MEAN_MOTION": 14.67311564, "ECCENTRICITY": 0.0030055, "INCLINATION": 97.8138, "RA_OF_ASC_NODE": 345.7907, "ARG_OF_PERICENTER": 93.0346, "MEAN_ANOMALY": 267.43, "EPHEMERIS_TYPE": 0, "CLASSIFICATION_TYPE": "U", "NORAD_CAT_ID": 41787, "ELEMENT_SET_NO": 999, "REV_AT_EPOCH": 49179, "BSTAR": 0.00028115, "MEAN_MOTION_DOT": 1.551e-05, "MEAN_MOTION_DDOT": 0}, "tle": {"line1": "1 41787U 16059E   25342.83587919  .00001551  00000+0  28115-3 0  9995", "line2": "2 41787  97.8138 345.7907 0030055  93.0346 267.4300 14.67311564491798"}}, "geometry": {"type": "Point", "coordinates": [-8.425062099995731, -34.425489274704546]}}, {"type": "Feature", "properties": {"norad_id": 41790, "name": "SCATSAT 1", "group": "resource", "lat": 7.530132613954405, "lon": -139.04999691989832, "alt_km": 601.760573445772, "timestamp": "2025-12-09T05:43:20.385249+00:00", "meta": {"OBJECT_NAME": "SCATSAT 1", "OBJECT_ID": "2016-059H", "EPOCH": "2025-12-08T17:34:57.844416", "MEAN_MOTION": 14.78916812, "ECCENTRICITY": 0.0056069, "INCLINATION": 98.1466, "RA_OF_ASC_NODE": 39.3529, "ARG_OF_PERICENTER": 140.6701, "MEAN_ANOMALY": 219.8602, "EPHEMERIS_TYPE": 0, "CLASSIFICATION_TYPE": "U", "NORAD_CAT_ID": 41790, "ELEMENT_SET_NO": 999, "REV_AT_EPOCH": 7343, "BSTAR": 0.00041382, "MEAN_MOTION_DOT": 3.076e-05, "MEAN_MOTION_DDOT": 0}, "tle": {"line1": "1 41790U 16059H   25342.73261394  .00003076  00000+0  41382-3 0  9999", "line2": "2 41790  98.1466  39.3529 0056069 140.6701 219.8602 14.78916812 73435"}}, "geometry": {"type": "Point", "coordinates": [-139.04999691989832, 7.530132613954405]}}, {"type": "Feature", "properties": {"norad_id": 41875, "name": "GOKTURK 1A", "group": "resource", "lat": 77.25382790851076, "lon": 94.91997404846111, "alt_km": 676.1361284340492, "timestamp": "2025-12-09T05:43:20.385259+00:00", "meta": {"OBJECT_NAME": "GOKTURK 1A", "OBJECT_ID": "2016-073A", "EPOCH": "2025-12-08T19:25:03.332640", "MEAN_MOTION": 14.62772245, "ECCENTRICITY": 0.0001275, "INCLINATION": 98.1431, "RA_OF_ASC_NODE": 235.2264, "ARG_OF_PERICENTER": 78.3619, "MEAN_ANOMALY": 281.7726, "EPHEMERIS_TYPE": 0, "CLASSIFICATION_TYPE": "U", "NORAD_CAT_ID": 41875, "ELEMENT_SET_NO": 999, "REV_AT_EPOCH": 48099, "BSTAR": 0.00015413, "MEAN_MOTION_DOT": 7.39e-06, "MEAN_MOTION_DDOT": 0}, "tle": {"line1": "1 41875U 16073A   25342.80906635  .00000739  00000+0  15413-3 0  9990", "line2": "2 41875  98.1431 235.2264 0001275  78.3619 281.7726 14.62772245480999"}}, "geometry": {"type": "Point", "coordinates": [94.91997404846111, 77.25382790851076]}}, {"type": "Feature", "properties": {"norad_id": 41877, "name": "RESOURCESAT-2A", "group": "resource", "lat": -52.32921217343193, "lon": 64.6562363253242, "alt_km": 826.1808336809636, "timestamp": "2025-12-09T05:43:20.385270+00:00", "meta": {"OBJECT_NAME": "RESOURCESAT-2A", "OBJECT_ID": "2016-074A", "EPOCH": "2025-12-08T19:50:13.373952", "MEAN_MOTION": 14.21597262, "ECCENTRICITY": 0.0001139, "INCLINATION": 98.7759, "RA_OF_ASC_NODE": 52.7052, "ARG_OF_PERICENTER": 276.4824, "MEAN_ANOMALY": 83.6223, "EPHEMERIS_TYPE": 0, "CLASSIFICATION_TYPE": "U", "NORAD_CAT_ID": 41877, "ELEMENT_SET_NO": 999, "REV_AT_EPOCH": 46725, "BSTAR": 0.00020956, "MEAN_MOTION_DOT": 4.15e-06, "MEAN_MOTION_DDOT": 0}, "tle": {"line1": "1 41877U 16074A   25342.82654368  .00000415  00000+0  20956-3 0  9997", "line2": "2 41877  98.7759  52.7052 0001139 276.4824  83.6223 14.21597262467259"}}, "geometry": {"type": "Point", "coordinates": [64.6562363253242, -52.32921217343193]}}, {"type": "Feature", "properties": {"norad_id": 41948, "name": "CARTOSAT-2D", "group": "resource", "lat": 15.078049616532496, "lon": -137.19425143655556, "alt_km": 506.2941416099102, "timestamp": "2025-12-09T05:43:20.385280+00:00", "meta": {"OBJECT_NAME": "CARTOSAT-2D", "OBJECT_ID": "2017-008A", "EPOCH": "2025-12-08T19:30:54.074304", "MEAN_MOTION": 15.1919472, "ECCENTRICITY": 0.0004237, "INCLINATION": 97.4391, "RA_OF_ASC_NODE": 40.3696, "ARG_OF_PERICENTER": 173.9288, "MEAN_ANOMALY": 186.1998, "EPHEMERIS_TYPE": 0, "CLASSIFICATION_TYPE": "U", "NORAD_CAT_ID": 41948, "ELEMENT_SET_NO": 999, "REV_AT_EPOCH": 48867, "BSTAR": 0.00024343, "MEAN_MOTION_DOT": 5.056e-05, "MEAN_MOTION_DDOT": 0}, "tle": {"line1": "1 41948U 17008A   25342.81312586  .00005056  00000+0  24343-3 0  9996", "line2": "2 41948  97.4391  40.3696 0004237 173.9288 186.1998 15.19194720488677"}}, "geometry": {"type": "Point", "coordinates": [-137.19425143655556, 15.078049616532496]}}, {"type": "Feature", "properties": {"norad_id": 42063, "name": "SENTINEL-2B", "group": "resource", "lat": 20.17798336545801, "lon": -121.08904669202093, "alt_km": 788.696105448983, "timestamp": "2025-12-09T05:43:20.385290+00:00", "meta": {"OBJECT_NAME": "SENTINEL-2B", "OBJECT_ID": "2017-013A", "EPOCH": "2025-12-08T20:35:16.360800", "MEAN_MOTION": 14.30812951, "ECCENTRICITY": 0.000114, "INCLINATION": 98.572, "RA_OF_ASC_NODE": 55.3582, "ARG_OF_PERICENTER": 92.627, "MEAN_ANOMALY": 267.5043, "EPHEMERIS_TYPE": 0, "CLASSIFICATION_TYPE": "U", "NORAD_CAT_ID": 42063, "ELEMENT_SET_NO": 999, "REV_AT_EPOCH": 45742, "BSTAR": 3.648e-05, "MEAN_MOTION_DOT": 5.2e-07, "MEAN_MOTION_DDOT": 0}, "tle": {"line1": "1 42063U 17013A   25342.85782825  .00000052  00000+0  36480-4 0  9999", "line2": "2 42063  98.5720  55.3582 0001140  92.6270 267.5043 14.30812951457421"}}, "geometry": {"type": "Point", "coordinates": [-121.08904669202093, 20.17798336545801]}}, {"type": "Feature", "properties": {"norad_id": 42767, "name": "CARTOSAT-2E", "group": "resource", "lat": 73.5212271840948, "lon": 14.592201749622895, "alt_km": 502.6430389999996, "timestamp": "2025-12-09T05:43:20.385301+00:00", "meta": {"OBJECT_NAME": "CARTOSAT-2E", "OBJECT_ID": "2017-036C", "EPOCH": "2025-12-08T21:29:18.742848", "MEAN_MOTION": 15.19259687, "ECCENTRICITY": 0.0002322, "INCLINATION": 97.456, "RA_OF_ASC_NODE": 40.5314, "ARG_OF_PERICENTER": 257.8577, "MEAN_ANOMALY": 102.2397, "EPHEMERIS_TYPE": 0, "CLASSIFICATION_TYPE": "U", "NORAD_CAT_ID": 42767, "ELEMENT_SET_NO": 999, "REV_AT_EPOCH": 46925, "BSTAR": 0.00024674, "MEAN_MOTION_DOT": 5.134e-05, "MEAN_MOTION_DDOT": 0}, "tle": {"line1": "1 42767U 17036C   25342.89535582  .00005134  00000+0  24674-3 0  9992", "line2": "2 42767  97.4560  40.5314 0002322 257.8577 102.2397 15.19259687469259"}}, "geometry": {"type": "Point", "coordinates": [14.592201749622895, 73.5212271840948]}}, {"type": "Feature", "properties": {"norad_id": 42920, "name": "FORMOSAT-5", "group": "resource", "lat": -81.36759724741917, "lon": 164.8462240351708, "alt_km": 724.2622026238805, "timestamp": "2025-12-09T05:43:20.385314+00:00", "meta": {"OBJECT_NAME": "FORMOSAT-5", "OBJECT_ID": "2017-049A", "EPOCH": "2025-12-08T18:33:45.363744", "MEAN_MOTION": 14.5100223, "ECCENTRICITY": 0.0010043, "INCLINATION": 98.2456, "RA_OF_ASC_NODE": 57.1711, "ARG_OF_PERICENTER": 308.9854, "MEAN_ANOMALY": 51.0445, "EPHEMERIS_TYPE": 0, "CLASSIFICATION_TYPE": "U", "NORAD_CAT_ID": 42920, "ELEMENT_SET_NO": 999, "REV_AT_EPOCH": 43906, "BSTAR": 0.00014729, "MEAN_MOTION_DOT": 5.39e-06, "MEAN_MOTION_DDOT": 0}, "tle": {"line1": "1 42920U 17049A   25342.77344171  .00000539  00000+0  14729-3 0  9990", "line2": "2 42920  98.2456  57.1711 0010043 308.9854  51.0445 14.51002230439069"}}, "geometry": {"type": "Point", "coordinates": [164.8462240351708, -81.36759724741917]}}]}